CCSDS_OMM_VERS = 2.0
CREATION_DATE  = 
ORIGINATOR     = 

OBJECT_NAME    = KUIPER-00160
OBJECT_ID      = 2026-030B
CENTER_NAME    = EARTH
REF_FRAME      = TEME
TIME_SYSTEM    = UTC
MEAN_ELEMENT_THEORY = SGP/SGP4

EPOCH          = 2026-03-04T11:48:45.554688
MEAN_MOTION    = 15.35345775
ECCENTRICITY   = .0004746
INCLINATION    = 51.8809
RA_OF_ASC_NODE = 244.2319
ARG_OF_PERICENTER = 42.1444
MEAN_ANOMALY   = 317.9906

EPHEMERIS_TYPE = 0
CLASSIFICATION_TYPE = U
NORAD_CAT_ID   = 67765
ELEMENT_SET_NO = 999
REV_AT_EPOCH   = 429
BSTAR          = .12062E-2
MEAN_MOTION_DOT = .41904E-3
MEAN_MOTION_DDOT = 0

CCSDS_OMM_VERS = 2.0
CREATION_DATE  = 
ORIGINATOR     = 

OBJECT_NAME    = KUIPER-00177
OBJECT_ID      = 2026-030C
CENTER_NAME    = EARTH
REF_FRAME      = TEME
TIME_SYSTEM    = UTC
MEAN_ELEMENT_THEORY = SGP/SGP4

EPOCH          = 2026-03-04T11:32:00.165408
MEAN_MOTION    = 15.36288882
ECCENTRICITY   = .0001077
INCLINATION    = 51.8828
RA_OF_ASC_NODE = 244.1618
ARG_OF_PERICENTER = 8.2848
MEAN_ANOMALY   = 351.8156

EPHEMERIS_TYPE = 0
CLASSIFICATION_TYPE = U
NORAD_CAT_ID   = 67766
ELEMENT_SET_NO = 999
REV_AT_EPOCH   = 429
BSTAR          = .1312E-2
MEAN_MOTION_DOT = .47042E-3
MEAN_MOTION_DDOT = 0

CCSDS_OMM_VERS = 2.0
CREATION_DATE  = 
ORIGINATOR     = 

OBJECT_NAME    = KUIPER-00178
OBJECT_ID      = 2026-030D
CENTER_NAME    = EARTH
REF_FRAME      = TEME
TIME_SYSTEM    = UTC
MEAN_ELEMENT_THEORY = SGP/SGP4

EPOCH          = 2026-03-04T11:51:11.165472
MEAN_MOTION    = 15.35295266
ECCENTRICITY   = .0006223
INCLINATION    = 51.8830
RA_OF_ASC_NODE = 244.2493
ARG_OF_PERICENTER = 31.1459
MEAN_ANOMALY   = 328.9895

EPHEMERIS_TYPE = 0
CLASSIFICATION_TYPE = U
NORAD_CAT_ID   = 67767
ELEMENT_SET_NO = 999
REV_AT_EPOCH   = 429
BSTAR          = .1489E-2
MEAN_MOTION_DOT = .51815E-3
MEAN_MOTION_DDOT = 0

CCSDS_OMM_VERS = 2.0
CREATION_DATE  = 
ORIGINATOR     = 

OBJECT_NAME    = KUIPER-00180
OBJECT_ID      = 2026-030E
CENTER_NAME    = EARTH
REF_FRAME      = TEME
TIME_SYSTEM    = UTC
MEAN_ELEMENT_THEORY = SGP/SGP4

EPOCH          = 2026-03-04T12:32:26.471904
MEAN_MOTION    = 15.32113555
ECCENTRICITY   = .0014618
INCLINATION    = 51.8795
RA_OF_ASC_NODE = 244.4256
ARG_OF_PERICENTER = 52.7518
MEAN_ANOMALY   = 307.4797

EPHEMERIS_TYPE = 0
CLASSIFICATION_TYPE = U
NORAD_CAT_ID   = 67768
ELEMENT_SET_NO = 999
REV_AT_EPOCH   = 429
BSTAR          = .20773E-2
MEAN_MOTION_DOT = .65771E-3
MEAN_MOTION_DDOT = 0

CCSDS_OMM_VERS = 2.0
CREATION_DATE  = 
ORIGINATOR     = 

OBJECT_NAME    = KUIPER-00197
OBJECT_ID      = 2026-030F
CENTER_NAME    = EARTH
REF_FRAME      = TEME
TIME_SYSTEM    = UTC
MEAN_ELEMENT_THEORY = SGP/SGP4

EPOCH          = 2026-03-04T11:34:59.076480
MEAN_MOTION    = 15.36163588
ECCENTRICITY   = .0001418
INCLINATION    = 51.8830
RA_OF_ASC_NODE = 244.1766
ARG_OF_PERICENTER = 48.3821
MEAN_ANOMALY   = 311.7287

EPHEMERIS_TYPE = 0
CLASSIFICATION_TYPE = U
NORAD_CAT_ID   = 67769
ELEMENT_SET_NO = 999
REV_AT_EPOCH   = 429
BSTAR          = .15219E-2
MEAN_MOTION_DOT = .54465E-3
MEAN_MOTION_DDOT = 0

CCSDS_OMM_VERS = 2.0
CREATION_DATE  = 
ORIGINATOR     = 

OBJECT_NAME    = KUIPER-00198
OBJECT_ID      = 2026-030G
CENTER_NAME    = EARTH
REF_FRAME      = TEME
TIME_SYSTEM    = UTC
MEAN_ELEMENT_THEORY = SGP/SGP4

EPOCH          = 2026-03-04T11:41:40.773408
MEAN_MOTION    = 15.35796409
ECCENTRICITY   = .0003013
INCLINATION    = 51.8808
RA_OF_ASC_NODE = 244.2004
ARG_OF_PERICENTER = 34.1858
MEAN_ANOMALY   = 325.9321

EPHEMERIS_TYPE = 0
CLASSIFICATION_TYPE = U
NORAD_CAT_ID   = 67770
ELEMENT_SET_NO = 999
REV_AT_EPOCH   = 429
BSTAR          = .94961E-3
MEAN_MOTION_DOT = .33346E-3
MEAN_MOTION_DDOT = 0

CCSDS_OMM_VERS = 2.0
CREATION_DATE  = 
ORIGINATOR     = 

OBJECT_NAME    = KUIPER-00199
OBJECT_ID      = 2026-030H
CENTER_NAME    = EARTH
REF_FRAME      = TEME
TIME_SYSTEM    = UTC
MEAN_ELEMENT_THEORY = SGP/SGP4

EPOCH          = 2026-03-04T12:11:35.697120
MEAN_MOTION    = 15.34151599
ECCENTRICITY   = .0010142
INCLINATION    = 51.8802
RA_OF_ASC_NODE = 244.3326
ARG_OF_PERICENTER = 46.7813
MEAN_ANOMALY   = 313.4018

EPHEMERIS_TYPE = 0
CLASSIFICATION_TYPE = U
NORAD_CAT_ID   = 67771
ELEMENT_SET_NO = 999
REV_AT_EPOCH   = 429
BSTAR          = .18027E-2
MEAN_MOTION_DOT = .60687E-3
MEAN_MOTION_DDOT = 0

CCSDS_OMM_VERS = 2.0
CREATION_DATE  = 
ORIGINATOR     = 

OBJECT_NAME    = KUIPER-00200
OBJECT_ID      = 2026-030J
CENTER_NAME    = EARTH
REF_FRAME      = TEME
TIME_SYSTEM    = UTC
MEAN_ELEMENT_THEORY = SGP/SGP4

EPOCH          = 2026-03-04T11:23:33.978048
MEAN_MOTION    = 15.36800201
ECCENTRICITY   = .0001376
INCLINATION    = 51.8805
RA_OF_ASC_NODE = 244.1209
ARG_OF_PERICENTER = 213.3954
MEAN_ANOMALY   = 146.6946

EPHEMERIS_TYPE = 0
CLASSIFICATION_TYPE = U
NORAD_CAT_ID   = 67772
ELEMENT_SET_NO = 999
REV_AT_EPOCH   = 429
BSTAR          = .99506E-3
MEAN_MOTION_DOT = .36128E-3
MEAN_MOTION_DDOT = 0

CCSDS_OMM_VERS = 2.0
CREATION_DATE  = 
ORIGINATOR     = 

OBJECT_NAME    = KUIPER-00203
OBJECT_ID      = 2026-030K
CENTER_NAME    = EARTH
REF_FRAME      = TEME
TIME_SYSTEM    = UTC
MEAN_ELEMENT_THEORY = SGP/SGP4

EPOCH          = 2026-03-04T10:00:01.999584
MEAN_MOTION    = 15.24321602
ECCENTRICITY   = .0011747
INCLINATION    = 51.8812
RA_OF_ASC_NODE = 244.9540
ARG_OF_PERICENTER = 46.7559
MEAN_ANOMALY   = 60.7953

EPHEMERIS_TYPE = 0
CLASSIFICATION_TYPE = U
NORAD_CAT_ID   = 67773
ELEMENT_SET_NO = 999
REV_AT_EPOCH   = 284
BSTAR          = .33992E-2
MEAN_MOTION_DOT = .85061E-3
MEAN_MOTION_DDOT = 0

CCSDS_OMM_VERS = 2.0
CREATION_DATE  = 
ORIGINATOR     = 

OBJECT_NAME    = KUIPER-00205
OBJECT_ID      = 2026-030L
CENTER_NAME    = EARTH
REF_FRAME      = TEME
TIME_SYSTEM    = UTC
MEAN_ELEMENT_THEORY = SGP/SGP4

EPOCH          = 2026-03-04T11:36:02.863872
MEAN_MOTION    = 15.36139800
ECCENTRICITY   = .0002691
INCLINATION    = 51.8808
RA_OF_ASC_NODE = 244.1755
ARG_OF_PERICENTER = 6.2345
MEAN_ANOMALY   = 353.8674

EPHEMERIS_TYPE = 0
CLASSIFICATION_TYPE = U
NORAD_CAT_ID   = 67774
ELEMENT_SET_NO = 999
REV_AT_EPOCH   = 429
BSTAR          = .95371E-3
MEAN_MOTION_DOT = .33868E-3
MEAN_MOTION_DDOT = 0

CCSDS_OMM_VERS = 2.0
CREATION_DATE  = 
ORIGINATOR     = 

OBJECT_NAME    = KUIPER-00208
OBJECT_ID      = 2026-030M
CENTER_NAME    = EARTH
REF_FRAME      = TEME
TIME_SYSTEM    = UTC
MEAN_ELEMENT_THEORY = SGP/SGP4

EPOCH          = 2026-03-04T12:28:46.323840
MEAN_MOTION    = 15.32643438
ECCENTRICITY   = .0014599
INCLINATION    = 51.8820
RA_OF_ASC_NODE = 244.4175
ARG_OF_PERICENTER = 45.3118
MEAN_ANOMALY   = 314.9054

EPHEMERIS_TYPE = 0
CLASSIFICATION_TYPE = U
NORAD_CAT_ID   = 67775
ELEMENT_SET_NO = 999
REV_AT_EPOCH   = 429
BSTAR          = .17412E-2
MEAN_MOTION_DOT = .55923E-3
MEAN_MOTION_DDOT = 0

CCSDS_OMM_VERS = 2.0
CREATION_DATE  = 
ORIGINATOR     = 

OBJECT_NAME    = KUIPER-00209
OBJECT_ID      = 2026-030N
CENTER_NAME    = EARTH
REF_FRAME      = TEME
TIME_SYSTEM    = UTC
MEAN_ELEMENT_THEORY = SGP/SGP4

EPOCH          = 2026-03-04T12:34:58.014048
MEAN_MOTION    = 15.31288309
ECCENTRICITY   = .0012795
INCLINATION    = 51.8811
RA_OF_ASC_NODE = 244.4424
ARG_OF_PERICENTER = 51.3338
MEAN_ANOMALY   = 308.8789

EPHEMERIS_TYPE = 0
CLASSIFICATION_TYPE = U
NORAD_CAT_ID   = 67776
ELEMENT_SET_NO = 999
REV_AT_EPOCH   = 429
BSTAR          = .34857E-3
MEAN_MOTION_DOT = .10357E-3
MEAN_MOTION_DDOT = 0

